SARSAT 7 (NOAA 15)      
1 25338U 98030A   22091.80506034  .00000177  00000+0  92378-4 0  9998
2 25338  98.6531 122.3119 0010944 155.7958 204.3738 14.26103103242345
METEOSAT-8 (MSG-1)      
1 27509U 02040B   22091.58876611  .00000127  00000+0  00000+0 0  9993
2 27509   7.8981  51.0536 0001959 313.3590  78.8994  1.00268837 71846
GPS BIIR-08             
1 27663U 03005A   22091.49832672 -.00000027  00000+0  00000+0 0  9995
2 27663  55.5661 276.1140 0126383  40.5230 328.0442  2.00569103140477
GPS BIIR-11             
1 28190U 04009A   22091.52337971 -.00000084  00000+0  00000+0 0  9995
2 28190  56.0471 337.0763 0088987 116.8823  67.3947  2.00561876132101
GPS BIIR-13             
1 28474U 04045A   22091.14454241 -.00000107  00000+0  00000+0 0  9994
2 28474  55.3251  26.5462 0208062 278.0282 261.1007  2.00568378127589
SARSAT 10 (NOAA 18)     
1 28654U 05018A   22091.78654718  .00000211  00000+0  13761-3 0  9993
2 28654  98.9550 162.2668 0014393 184.1372 175.9683 14.12706381869241
GPS BIIR-14M            
1 28874U 05038A   22091.47957803 -.00000081  00000+0  00000+0 0  9990
2 28874  56.1164 334.5088 0137336 274.5392 257.4578  2.00551361120992
METEOSAT-9 (MSG-2)      
1 28912U 05049B   22091.51644053  .00000138  00000+0  00000+0 0  9992
2 28912   5.8492  66.7708 0000602 256.7813  86.4895  1.00431319 59619
GOES 13                 
1 29155U 06018A   22091.52184806  .00000023  00000+0  00000+0 0  9998
2 29155   0.4007  96.8786 0001867 156.7625 185.5573  1.00273713 27954
GPS BIIR-16M            
1 29601U 06052A   22091.29711757 -.00000026  00000+0  00000+0 0  9991
2 29601  55.5708 275.0568 0085017  72.0954 288.8143  2.00575109112569
GPS BIIR-17M            
1 32260U 07047A   22091.10994725  .00000035  00000+0  00000+0 0  9998
2 32260  53.2913 143.7479 0137504  61.5835 299.8805  2.00552832105960
GPS BIIR-18M            
1 32384U 07062A   22091.52999575 -.00000082  00000+0  00000+0 0  9999
2 32384  56.2330 335.2581 0018124 132.4540 301.5868  2.00557530104679
SARSAT 12 (NOAA 19)     
1 33591U 09005A   22091.77916833  .00000161  00000+0  11219-3 0  9997
2 33591  99.1575 124.2723 0014519  46.7129 313.5251 14.12543305677625
GOES 14                 
1 35491U 09033A   22091.57487358 -.00000105  00000+0  00000+0 0  9993
2 35491   0.1389  89.7104 0011766 133.9634  68.6770  1.00272184 46698
GOES 15                 
1 36411U 10008A   22091.60846873  .00000043  00000+0  00000+0 0  9995
2 36411   0.1110 108.6373 0001387 313.7949 218.1557  1.00270037 44257
GPS BIIF-2              
1 37753U 11036A   22091.51637323 -.00000101  00000+0  00000+0 0  9991
2 37753  56.5728  31.6994 0114820  50.2462 162.0800  2.00564913 78436
GSAT0101 (GALILEO-PFM)  
1 37846U 11060A   22089.64887646 -.00000105  00000+0  00000+0 0  9991
2 37846  56.9688  23.4785 0004186   0.5132 359.4675  1.70475021 64872
GSAT0102 (GALILEO-FM2)  
1 37847U 11060B   22090.46166473 -.00000106  00000+0  00000+0 0  9993
2 37847  56.9699  23.4559 0005129 336.9817 208.3879  1.70475363 64897
LUCH 5A                 
1 37951U 11074B   22091.65531920 -.00000056  00000+0  00000+0 0  9993
2 37951   4.8239  99.1689 0003948 293.9686 199.6811  1.00270930 37773
METEOSAT-10 (MSG-3)     
1 38552U 12035B   22091.29621476  .00000047  00000+0  00000+0 0  9994
2 38552   1.4185  36.0789 0001765 254.5504  15.1917  1.00263594 35430
SARSAT 13 (METOP-B)     
1 38771U 12049A   22091.84734387  .00000125  00000+0  77199-4 0  9994
2 38771  98.7045 152.7024 0000309 103.2526  31.8028 14.21489056494844
GPS BIIF-3              
1 38833U 12053A   22090.70769380 -.00000024  00000+0  00000+0 0  9994
2 38833  53.5370 206.5343 0122375  45.8272 315.1487  2.00560865 68589
GSAT0103 (GALILEO-FM3)  
1 38857U 12055A   22090.86227524  .00000030  00000+0  00000+0 0  9994
2 38857  55.1131 143.8313 0004948 262.2656  97.7689  1.70473681 58787
GSAT0104 (GALILEO-FM4)  
1 38858U 12055B   22089.65935253  .00000027  00000+0  00000+0 0  9991
2 38858  55.1129 143.8657 0002483 256.1967 103.8630  1.70473909 58761
GPS BIIF-4              
1 39166U 13023A   22090.56726183 -.00000073  00000+0  00000+0 0  9994
2 39166  55.7474 330.9477 0103006  36.7923 323.9607  2.00566404 65022
INSAT-3D                
1 39216U 13038B   22091.56438250 -.00000170  00000+0  00000+0 0  9990
2 39216   0.0128 153.4320 0001190 240.7687  80.9596  1.00272532 31684
GPS BIIF-5              
1 39533U 14008A   22091.55878890 -.00000018  00000+0  00000+0 0  9998
2 39533  53.6330 211.9971 0057372 205.7742 153.9137  2.00549473 58844
LUCH 5V                 
1 39727U 14023A   22091.81557081 -.00000280  00000+0  00000+0 0  9996
2 39727   1.3214  73.8853 0003043 341.1136 163.4754  1.00270632547090
GPS BIIF-6              
1 39741U 14026A   22091.34227269 -.00000102  00000+0  00000+0 0  9998
2 39741  56.5360  31.2320 0028541 305.6321  54.0866  2.00561446 57696
GPS BIIF-7              
1 40105U 14045A   22091.43234386  .00000035  00000+0  00000+0 0  9997
2 40105  54.6730 149.8789 0019166 109.8713 250.4169  2.00572605 55234
GSAT0201 (GALILEO 5)    
1 40128U 14050A   22090.05436407 -.00000095  00000+0  00000+0 0  9990
2 40128  50.3304 335.4061 1630130 121.2017 255.7895  1.85519093 51707
GSAT0202 (GALILEO 6)    
1 40129U 14050B   22089.23765071 -.00000090  00000+0  00000+0 0  9996
2 40129  50.3570 334.4968 1627225 121.9807 254.8641  1.85519672 51918
GPS BIIF-8              
1 40294U 14068A   22090.80941712  .00000007  00000+0  00000+0 0  9998
2 40294  55.7580  91.0008 0038000  51.9332 308.4303  2.00566076 54353
GLONASS-K 2             
1 40315U 14075A   22091.54674073 -.00000010  00000+0  00000+0 0  9990
2 40315  63.7070 243.8619 0016669 205.4035 161.2902  2.13101374 57092
GPS BIIF-9              
1 40534U 15013A   22091.44083894 -.00000029  00000+0  00000+0 0  9990
2 40534  53.7544 267.8829 0068520  20.3886 339.8532  2.00557224 50988
GSAT0203 (GALILEO 7)    
1 40544U 15017A   22090.01645529 -.00000106  00000+0  00000+0 0  9992
2 40544  56.7640  23.5125 0003525 288.4644  71.4782  1.70475651 42962
GSAT0204 (GALILEO 8)    
1 40545U 15017B   22090.85569667 -.00000106  00000+0  00000+0 0  9993
2 40545  56.7701  23.5017 0002656 277.4786  82.4740  1.70475532  6021
GPS BIIF-10             
1 40730U 15033A   22091.10596725 -.00000075  00000+0  00000+0 0  9996
2 40730  55.2475 329.7920 0073862   6.2511 353.8908  2.00556079 49145
METEOSAT-11 (MSG-4)     
1 40732U 15034A   22091.36616369 -.00000017  00000+0  00000+0 0  9990
2 40732   0.1900  14.4175 0000630  48.7351 258.6423  1.00263630 24600
GSAT0205 (GALILEO 9)    
1 40889U 15045A   22091.20937808 -.00000013  00000+0  00000+0 0  9998
2 40889  55.6761 264.0935 0005700  30.2252 329.7604  1.70473562 40792
GSAT0206 (GALILEO 10)   
1 40890U 15045B   22091.43015450 -.00000013  00000+0  00000+0 0  9995
2 40890  55.6751 264.0833 0003812  28.1069 331.8656  1.70473634 40829
GPS BIIF-11             
1 41019U 15062A   22091.15377581  .00000004  00000+0  00000+0 0  9992
2 41019  55.7479  90.8283 0077071 218.3412 141.1278  2.00562962 46980
ELEKTRO-L 2             
1 41105U 15074A   22091.86554911 -.00000125  00000+0  00000+0 0  9998
2 41105   2.7950  88.9973 0000753  25.8804  12.4960  1.00271730 23101
GSAT0209 (GALILEO 12)   
1 41174U 15079A   22089.84555373  .00000028  00000+0  00000+0 0  9998
2 41174  55.1293 143.5621 0004749 300.3506  59.6907  1.70474905 38539
GSAT0208 (GALILEO 11)   
1 41175U 15079B   22088.30524093  .00000022  00000+0  00000+0 0  9998
2 41175  55.1270 143.6031 0004017 298.7508  61.2900  1.70474886 38924
GPS BIIF-12             
1 41328U 16007A   22091.24936150  .00000035  00000+0  00000+0 0  9992
2 41328  54.8926 150.5393 0059965 229.0964 130.4628  2.00574024 44990
GSAT0211 (GALILEO 14)   
1 41549U 16030A   22089.01125496 -.00000005  00000+0  00000+0 0  9996
2 41549  55.8216 264.0748 0003751 358.1962   1.7676  1.70475035 36416
GSAT0210 (GALILEO 13)   
1 41550U 16030B   22089.89050135 -.00000010  00000+0  00000+0 0  9997
2 41550  55.8209 264.0520 0001950 333.7749  26.1745  1.70475199 36429
INSAT-3DR               
1 41752U 16054A   22091.45259685 -.00000091  00000+0  00000+0 0  9992
2 41752   0.0964  97.0050 0011397 184.1410 145.5130  1.00272153 20395
GSAT0207 (GALILEO 15)   
1 41859U 16069A   22091.31125288  .00000029  00000+0  00000+0 0  9992
2 41859  54.7896 143.7221 0005037 288.0871  71.9491  1.70473606 33187
GSAT0212 (GALILEO 16)   
1 41860U 16069B   22089.99149098  .00000028  00000+0  00000+0 0  9999
2 41860  54.7867 143.7564 0003488 306.0593  53.9969  1.70473601 33418
GSAT0213 (GALILEO 17)   
1 41861U 16069C   22091.53013002  .00000029  00000+0  00000+0 0  9999
2 41861  54.7893 143.7189 0004918 269.1337  90.9010  1.70473625 33307
GSAT0214 (GALILEO 18)   
1 41862U 16069D   22089.33086277  .00000026  00000+0  00000+0 0  9996
2 41862  54.7887 143.7745 0003915 271.1652  88.8758  1.70473627 33394
GOES 16                 
1 41866U 16071A   22091.50514002 -.00000262  00000+0  00000+0 0  9990
2 41866   0.0682 289.2968 0000804 116.9993 250.1629  1.00272053 19697
GSAT-17                 
1 42815U 17040B   22091.59840944 -.00000271  00000+0  00000+0 0  9998
2 42815   0.0381 103.8289 0004087 189.6806 205.3157  1.00270566 17370
GSAT0215 (GALILEO 19)   
1 43055U 17079A   22090.99467827 -.00000013  00000+0  00000+0 0  9999
2 43055  55.7963 263.8537 0001357 342.8258  17.1228  1.70474340 26768
GSAT0216 (GALILEO 20)   
1 43056U 17079B   22091.28695688 -.00000013  00000+0  00000+0 0  9991
2 43056  55.7963 263.8455 0002673 308.0308  51.8971  1.70474468 26783
GSAT0217 (GALILEO 21)   
1 43057U 17079C   22089.74743955 -.00000009  00000+0  00000+0 0  9996
2 43057  55.7953 263.8877 0002885 330.9623  28.9816  1.70474313 26748
GSAT0218 (GALILEO 22)   
1 43058U 17079D   22089.96744328 -.00000010  00000+0  00000+0 0  9998
2 43058  55.7952 263.8790 0002928 298.4086  61.5203  1.70474382 26773
